start=new Date('2023-06-10T00:00:00.000Z').valueOf();
sats=[{"EPHEMERIS_TYPE":"0","TLE_LINE2":"2 46704  53.0541  49.9350 0000742 121.8641 238.2421 15.06394045146041","COUNTRY_CODE":"US","REF_FRAME":"TEME","INCLINATION":"53.0541","TLE_LINE1":"1 46704U 20073AL  23160.42519137  .00014120  00000-0  96505-3 0  9993","CLASSIFICATION_TYPE":"U","EPOCH":"2023-06-09T10:12:16.534368","MEAN_ANOMALY":"238.2421","MEAN_ELEMENT_THEORY":"SGP4","TIME_SYSTEM":"UTC","RA_OF_ASC_NODE":"49.9350","LAUNCH_DATE":"2020-10-18","MEAN_MOTION":"15.06394045","REV_AT_EPOCH":"14604","OBJECT_TYPE":"PAYLOAD","GP_ID":"233544232","SITE":"AFETR","FILE":"3928876","BSTAR":"0.00096505000000","MEAN_MOTION_DDOT":"0.0000000000000","ARG_OF_PERICENTER":"121.8641","OBJECT_NAME":"STARLINK-1804","APOAPSIS":"547.746","DECAY_DATE":null,"OBJECT_ID":"2020-073AL","PERIAPSIS":"546.718","ELEMENT_SET_NO":"999","NORAD_CAT_ID":"46704","MEAN_MOTION_DOT":"0.00014120","ECCENTRICITY":"0.00007420","SEMIMAJOR_AXIS":"6925.367","PERIOD":"95.593","RCS_SIZE":"LARGE","CENTER_NAME":"EARTH"},{"SITE":"AFETR","GP_ID":"233542982","ARG_OF_PERICENTER":"118.5294","BSTAR":"0.00114680000000","FILE":"3928876","MEAN_MOTION_DDOT":"0.0000000000000","MEAN_MOTION":"15.06406211","REV_AT_EPOCH":"14556","LAUNCH_DATE":"2020-10-18","OBJECT_TYPE":"PAYLOAD","MEAN_ELEMENT_THEORY":"SGP4","MEAN_ANOMALY":"241.5796","TIME_SYSTEM":"UTC","CLASSIFICATION_TYPE":"U","TLE_LINE1":"1 46705U 20073AM  23160.50489113  .00016844  00000-0  11468-2 0  9992","EPOCH":"2023-06-09T12:07:02.593632","RA_OF_ASC_NODE":"84.5774","COUNTRY_CODE":"US","REF_FRAME":"TEME","EPHEMERIS_TYPE":"0","TLE_LINE2":"2 46705  53.0537  84.5774 0001010 118.5294 241.5796 15.06406211145565","INCLINATION":"53.0537","SEMIMAJOR_AXIS":"6925.330","RCS_SIZE":"LARGE","CENTER_NAME":"EARTH","PERIOD":"95.592","NORAD_CAT_ID":"46705","MEAN_MOTION_DOT":"0.00016844","ECCENTRICITY":"0.00010100","ELEMENT_SET_NO":"999","PERIAPSIS":"546.495","DECAY_DATE":null,"OBJECT_ID":"2020-073AM","OBJECT_NAME":"STARLINK-1805","APOAPSIS":"547.894"},{"RA_OF_ASC_NODE":"69.6964","MEAN_ELEMENT_THEORY":"SGP4","MEAN_ANOMALY":"275.7922","TIME_SYSTEM":"UTC","CLASSIFICATION_TYPE":"U","TLE_LINE1":"1 46706U 20073AN  23160.47863646  .00025541  00000-0  17275-2 0  9992","EPOCH":"2023-06-09T11:29:14.190144","INCLINATION":"53.0537","COUNTRY_CODE":"US","REF_FRAME":"TEME","EPHEMERIS_TYPE":"0","TLE_LINE2":"2 46706  53.0537  69.6964 0000630  84.3139 275.7922 15.06396198145771","ARG_OF_PERICENTER":"84.3139","BSTAR":"0.00172750000000","FILE":"3928876","MEAN_MOTION_DDOT":"0.0000000000000","SITE":"AFETR","GP_ID":"233542737","OBJECT_TYPE":"PAYLOAD","MEAN_MOTION":"15.06396198","REV_AT_EPOCH":"14577","LAUNCH_DATE":"2020-10-18","ELEMENT_SET_NO":"999","PERIAPSIS":"546.789","DECAY_DATE":null,"OBJECT_ID":"2020-073AN","APOAPSIS":"547.662","OBJECT_NAME":"STARLINK-1807","RCS_SIZE":"LARGE","CENTER_NAME":"EARTH","PERIOD":"95.592","SEMIMAJOR_AXIS":"6925.360","MEAN_MOTION_DOT":"0.00025541","ECCENTRICITY":"0.00006300","NORAD_CAT_ID":"46706"},{"SEMIMAJOR_AXIS":"6925.360","PERIOD":"95.592","RCS_SIZE":"LARGE","CENTER_NAME":"EARTH","NORAD_CAT_ID":"46707","ECCENTRICITY":"0.00009390","MEAN_MOTION_DOT":"0.00029451","DECAY_DATE":null,"OBJECT_ID":"2020-073AP","PERIAPSIS":"546.575","ELEMENT_SET_NO":"999","OBJECT_NAME":"STARLINK-1808","APOAPSIS":"547.875","GP_ID":"233543488","SITE":"AFETR","FILE":"3928876","BSTAR":"0.00198800000000","MEAN_MOTION_DDOT":"0.0000000000000","ARG_OF_PERICENTER":"71.2681","LAUNCH_DATE":"2020-10-18","MEAN_MOTION":"15.06396292","REV_AT_EPOCH":"14604","OBJECT_TYPE":"PAYLOAD","TLE_LINE1":"1 46707U 20073AP  23160.40307873  .00029451  00000-0  19880-2 0  9999","EPOCH":"2023-06-09T09:40:26.002272","CLASSIFICATION_TYPE":"U","MEAN_ELEMENT_THEORY":"SGP4","MEAN_ANOMALY":"288.8410","TIME_SYSTEM":"UTC","RA_OF_ASC_NODE":"50.0324","EPHEMERIS_TYPE":"0","TLE_LINE2":"2 46707  53.0546  50.0324 0000939  71.2681 288.8410 15.06396292146048","COUNTRY_CODE":"US","REF_FRAME":"TEME","INCLINATION":"53.0546"},{"RA_OF_ASC_NODE":"84.8188","TIME_SYSTEM":"UTC","MEAN_ELEMENT_THEORY":"SGP4","MEAN_ANOMALY":"298.4806","EPOCH":"2023-06-09T11:29:54.422304","TLE_LINE1":"1 46709U 20073AR  23160.47910211  .00008586  00000-0  59485-3 0  9996","CLASSIFICATION_TYPE":"U","INCLINATION":"53.0538","REF_FRAME":"TEME","COUNTRY_CODE":"US","TLE_LINE2":"2 46709  53.0538  84.8188 0001145  61.6299 298.4806 15.06385762145553","EPHEMERIS_TYPE":"0","ARG_OF_PERICENTER":"61.6299","MEAN_MOTION_DDOT":"0.0000000000000","BSTAR":"0.00059485000000","FILE":"3928876","SITE":"AFETR","GP_ID":"233543737","OBJECT_TYPE":"PAYLOAD","REV_AT_EPOCH":"14555","MEAN_MOTION":"15.06385762","LAUNCH_DATE":"2020-10-18","ELEMENT_SET_NO":"999","PERIAPSIS":"546.464","OBJECT_ID":"2020-073AR","DECAY_DATE":null,"APOAPSIS":"548.050","OBJECT_NAME":"STARLINK-1810","RCS_SIZE":"LARGE","CENTER_NAME":"EARTH","PERIOD":"95.593","SEMIMAJOR_AXIS":"6925.392","MEAN_MOTION_DOT":"0.00008586","ECCENTRICITY":"0.00011450","NORAD_CAT_ID":"46709"},{"SITE":"AFETR","GP_ID":"233542487","ARG_OF_PERICENTER":"111.8679","MEAN_MOTION_DDOT":"0.0000000000000","BSTAR":"0.00105690000000","FILE":"3928876","REV_AT_EPOCH":"14556","MEAN_MOTION":"15.06403944","LAUNCH_DATE":"2020-10-18","OBJECT_TYPE":"PAYLOAD","TIME_SYSTEM":"UTC","MEAN_ANOMALY":"248.2442","MEAN_ELEMENT_THEORY":"SGP4","TLE_LINE1":"1 46710U 20073AS  23160.49751930  .00015498  00000-0  10569-2 0  9990","EPOCH":"2023-06-09T11:56:25.667520","CLASSIFICATION_TYPE":"U","RA_OF_ASC_NODE":"84.6099","REF_FRAME":"TEME","COUNTRY_CODE":"US","TLE_LINE2":"2 46710  53.0539  84.6099 0001240 111.8679 248.2442 15.06403944145564","EPHEMERIS_TYPE":"0","INCLINATION":"53.0539","SEMIMAJOR_AXIS":"6925.336","RCS_SIZE":"LARGE","CENTER_NAME":"EARTH","PERIOD":"95.592","NORAD_CAT_ID":"46710","ECCENTRICITY":"0.00012400","MEAN_MOTION_DOT":"0.00015498","PERIAPSIS":"546.343","ELEMENT_SET_NO":"999","OBJECT_ID":"2020-073AS","DECAY_DATE":null,"OBJECT_NAME":"STARLINK-1811","APOAPSIS":"548.060"},{"MEAN_MOTION":"15.06403848","REV_AT_EPOCH":"14577","LAUNCH_DATE":"2020-10-18","OBJECT_TYPE":"PAYLOAD","SITE":"AFETR","GP_ID":"233543233","ARG_OF_PERICENTER":"117.5628","FILE":"3928876","BSTAR":"0.00158440000000","MEAN_MOTION_DDOT":"0.0000000000000","COUNTRY_CODE":"US","REF_FRAME":"TEME","EPHEMERIS_TYPE":"0","TLE_LINE2":"2 46711  53.0539  69.7310 0001137 117.5628 242.5477 15.06403848145778","INCLINATION":"53.0539","MEAN_ELEMENT_THEORY":"SGP4","MEAN_ANOMALY":"242.5477","TIME_SYSTEM":"UTC","TLE_LINE1":"1 46711U 20073AT  23160.47125938  .00023399  00000-0  15844-2 0  9992","CLASSIFICATION_TYPE":"U","EPOCH":"2023-06-09T11:18:36.810432","RA_OF_ASC_NODE":"69.7310","NORAD_CAT_ID":"46711","ECCENTRICITY":"0.00011370","MEAN_MOTION_DOT":"0.00023399","SEMIMAJOR_AXIS":"6925.337","CENTER_NAME":"EARTH","RCS_SIZE":"LARGE","PERIOD":"95.592","OBJECT_NAME":"STARLINK-1813","APOAPSIS":"547.989","PERIAPSIS":"546.414","ELEMENT_SET_NO":"999","DECAY_DATE":null,"OBJECT_ID":"2020-073AT"},{"SITE":"AFETR","GP_ID":"233543984","ARG_OF_PERICENTER":"78.9638","MEAN_MOTION_DDOT":"0.0000000000000","FILE":"3928876","BSTAR":"0.00155260000000","REV_AT_EPOCH":"14576","MEAN_MOTION":"15.06392956","LAUNCH_DATE":"2020-10-18","OBJECT_TYPE":"PAYLOAD","TIME_SYSTEM":"UTC","MEAN_ANOMALY":"281.1530","MEAN_ELEMENT_THEORY":"SGP4","EPOCH":"2023-06-09T10:46:47.601984","TLE_LINE1":"1 46712U 20073AU  23160.44916206  .00022916  00000-0  15526-2 0  9997","CLASSIFICATION_TYPE":"U","RA_OF_ASC_NODE":"69.9525","REF_FRAME":"TEME","COUNTRY_CODE":"US","TLE_LINE2":"2 46712  53.0545  69.9525 0001588  78.9638 281.1530 15.06392956145762","EPHEMERIS_TYPE":"0","INCLINATION":"53.0545","SEMIMAJOR_AXIS":"6925.370","RCS_SIZE":"LARGE","CENTER_NAME":"EARTH","PERIOD":"95.593","NORAD_CAT_ID":"46712","MEAN_MOTION_DOT":"0.00022916","ECCENTRICITY":"0.00015880","ELEMENT_SET_NO":"999","PERIAPSIS":"546.135","OBJECT_ID":"2020-073AU","DECAY_DATE":null,"OBJECT_NAME":"STARLINK-1814","APOAPSIS":"548.335"},{"SEMIMAJOR_AXIS":"6925.369","PERIOD":"95.593","RCS_SIZE":"LARGE","CENTER_NAME":"EARTH","NORAD_CAT_ID":"46713","ECCENTRICITY":"0.00010570","MEAN_MOTION_DOT":"0.00019483","DECAY_DATE":null,"OBJECT_ID":"2020-073AV","PERIAPSIS":"546.502","ELEMENT_SET_NO":"999","OBJECT_NAME":"STARLINK-1815","APOAPSIS":"547.966","GP_ID":"233544233","SITE":"AFETR","BSTAR":"0.00132350000000","FILE":"3928876","MEAN_MOTION_DDOT":"0.0000000000000","ARG_OF_PERICENTER":"102.2562","LAUNCH_DATE":"2020-10-18","MEAN_MOTION":"15.06393307","REV_AT_EPOCH":"14572","OBJECT_TYPE":"PAYLOAD","TLE_LINE1":"1 46713U 20073AV  23160.18281374  .00019483  00000-0  13235-2 0  9990","EPOCH":"2023-06-09T04:23:15.107136","CLASSIFICATION_TYPE":"U","MEAN_ANOMALY":"257.8546","MEAN_ELEMENT_THEORY":"SGP4","TIME_SYSTEM":"UTC","RA_OF_ASC_NODE":"71.0124","EPHEMERIS_TYPE":"0","TLE_LINE2":"2 46713  53.0544  71.0124 0001057 102.2562 257.8546 15.06393307145723","COUNTRY_CODE":"US","REF_FRAME":"TEME","INCLINATION":"53.0544"},{"OBJECT_TYPE":"PAYLOAD","LAUNCH_DATE":"2020-10-18","MEAN_MOTION":"15.06409606","REV_AT_EPOCH":"14580","BSTAR":"0.00117410000000","FILE":"3929125","MEAN_MOTION_DDOT":"0.0000000000000","ARG_OF_PERICENTER":"68.0378","GP_ID":"233576263","SITE":"AFETR","INCLINATION":"53.0545","EPHEMERIS_TYPE":"0","TLE_LINE2":"2 46714  53.0545  68.6873 0001191  68.0378 292.0738 15.06409606145804","COUNTRY_CODE":"US","REF_FRAME":"TEME","RA_OF_ASC_NODE":"68.6873","TLE_LINE1":"1 46714U 20073AW  23160.70347819  .00017254  00000-0  11741-2 0  9990","CLASSIFICATION_TYPE":"U","EPOCH":"2023-06-09T16:53:00.515616","MEAN_ANOMALY":"292.0738","MEAN_ELEMENT_THEORY":"SGP4","TIME_SYSTEM":"UTC","ECCENTRICITY":"0.00011910","MEAN_MOTION_DOT":"0.00017254","NORAD_CAT_ID":"46714","PERIOD":"95.592","RCS_SIZE":"LARGE","CENTER_NAME":"EARTH","SEMIMAJOR_AXIS":"6925.319","APOAPSIS":"548.009","OBJECT_NAME":"STARLINK-1816","DECAY_DATE":null,"OBJECT_ID":"2020-073AW","PERIAPSIS":"546.359","ELEMENT_SET_NO":"999"}];
